{
  "type": "FeatureCollection",
  "features": [
    {
      "type": "Feature",
      "properties": { "line": "1", "name": "1 Line", "color": "#009AC7" },
      "geometry": {
        "type": "LineString",
        "coordinates": [
          [-122.3591, 47.7065],
          [-122.3183, 47.6831],
          [-122.3143, 47.6657],
          [-122.3036, 47.6497],
          [-122.3202, 47.6199],
          [-122.3371, 47.6115],
          [-122.3365, 47.6079],
          [-122.3316, 47.6017],
          [-122.3279, 47.5982],
          [-122.3268, 47.5916],
          [-122.3272, 47.5789],
          [-122.3113, 47.5703],
          [-122.2981, 47.5751],
          [-122.2906, 47.5598],
          [-122.2820, 47.5380],
          [-122.2793, 47.5214],
          [-122.2887, 47.4643],
          [-122.2975, 47.4440],
          [-122.2976, 47.4214]
        ]
      }
    },
    {
      "type": "Feature",
      "properties": { "line": "2", "name": "2 Line", "color": "#E31837" },
      "geometry": {
        "type": "LineString",
        "coordinates": [
          [-122.3279, 47.5982],
          [-122.2991, 47.5924],
          [-122.1866, 47.5720],
          [-122.1803, 47.5968],
          [-122.2008, 47.6152],
          [-122.1594, 47.6218],
          [-122.1516, 47.6289],
          [-122.1434, 47.6499],
          [-122.1327, 47.6571],
          [-122.1205, 47.6680],
          [-122.1169, 47.6689]
        ]
      }
    }
  ]
}
